{"type":"FeatureCollection","name":"Country borders (Natural Earth 50m, admin_0_boundary_lines_land, public domain), clipped around the Netherlands","features":[{"type":"Feature","properties":{},"geometry":{"type":"MultiLineString","coordinates":[[[13.8147,48.7669],[13.7699,48.816],[13.685,48.8767],[13.5476,48.9597],[13.4408,48.9556],[13.4012,48.9776],[13.3837,49.0081],[13.3391,49.0608],[13.2888,49.0974],[13.2279,49.1117],[13.1405,49.1583],[13.0237,49.2601],[12.9167,49.3305],[12.8134,49.3294],[12.7479,49.3662],[12.6811,49.4145],[12.632,49.4612],[12.5558,49.5749],[12.5003,49.6397],[12.457,49.6798],[12.4082,49.7132],[12.3905,49.7397],[12.4502,49.8002],[12.4718,49.8301],[12.4976,49.8531],[12.5125,49.8774],[12.512,49.8958],[12.4576,49.9555],[12.3841,49.9986],[12.2764,50.0423],[12.2078,50.0975],[12.1825,50.148],[12.175,50.1759],[12.1279,50.2134],[12.0897,50.2686],[12.0898,50.3017],[12.0992,50.311],[12.1348,50.3109],[12.1748,50.2884],[12.2312,50.2449],[12.2773,50.1814],[12.3056,50.2057],[12.3586,50.2733],[12.4527,50.3498],[12.549,50.3934],[12.6355,50.3971],[12.7064,50.4091],[12.7655,50.431],[12.8683,50.4222],[12.9427,50.4065],[12.9668,50.4162],[12.9971,50.456],[13.0164,50.4904],[13.1811,50.5105],[13.2377,50.5768],[13.2695,50.5764],[13.3061,50.5863],[13.341,50.6114],[13.3746,50.6217],[13.4012,50.6093],[13.4362,50.6011],[13.4726,50.6169],[13.5265,50.6928],[13.5567,50.7047],[13.7014,50.7165],[13.8985,50.7613],[13.9985,50.8011],[14.0965,50.8228],[14.2018,50.8612],[14.3691,50.8988],[14.377,50.9141],[14.2994,50.9526],[14.2734,50.9769],[14.2559,51.0018],[14.2832,51.0295],[14.3197,51.0378],[14.3673,51.0263],[14.5074,51.0099],[14.5457,50.994],[14.5597,50.9549],[14.5952,50.9186],[14.6238,50.9147],[14.6136,50.8556],[14.6582,50.8326],[14.7234,50.8147],[14.7665,50.8183],[14.7975,50.8423],[14.8094,50.859]]]}},{"type":"Feature","properties":{},"geometry":{"type":"MultiLineString","coordinates":[[[6.3443,49.4527],[6.3485,49.5127],[6.3784,49.5996],[6.4068,49.645],[6.4446,49.682],[6.4848,49.7078],[6.4938,49.7544],[6.4873,49.7985],[6.4409,49.8053],[6.3246,49.8379],[6.256,49.8721],[6.2049,49.9151],[6.1382,49.9743],[6.1097,50.0344],[6.1083,50.0942],[6.1165,50.121]]]}},{"type":"Feature","properties":{},"geometry":{"type":"MultiLineString","coordinates":[[[2.5249,51.0971],[2.5361,51.0495],[2.5748,50.9886],[2.6014,50.9553],[2.5793,50.9118],[2.5968,50.8759],[2.6691,50.8114],[2.7594,50.7506],[2.8398,50.7118],[2.8624,50.716],[2.922,50.727],[3.0229,50.7669],[3.1069,50.7794],[3.1549,50.7489],[3.182,50.7317],[3.235,50.663],[3.2498,50.5912],[3.2733,50.5315],[3.3162,50.5074],[3.4769,50.4995],[3.5954,50.4774],[3.6268,50.4573],[3.6673,50.3248],[3.6893,50.3061],[3.7189,50.3217],[3.748,50.3435],[3.7886,50.347],[3.8581,50.3386],[3.9497,50.3359],[4.0441,50.3213],[4.1746,50.2465],[4.1696,50.2218],[4.1441,50.1784],[4.1353,50.1438],[4.1577,50.1299],[4.1922,50.0942],[4.1839,50.0528],[4.1503,50.0239],[4.1368,50.0],[4.137,49.9845],[4.1493,49.9716],[4.1761,49.9603],[4.3687,49.945],[4.545,49.9603],[4.6562,50.0025],[4.6751,50.0469],[4.7066,50.097],[4.7729,50.1391],[4.8187,50.1532],[4.8606,50.1359],[4.79,49.9596],[4.8415,49.9145],[4.8491,49.8471],[4.8676,49.7881],[4.9306,49.7893],[5.0069,49.7784],[5.0611,49.7565],[5.1241,49.7215],[5.215,49.6892],[5.2788,49.6779],[5.302,49.651],[5.3535,49.6198],[5.4346,49.5545],[5.5073,49.5109],[5.5424,49.511],[5.6101,49.5282],[5.7105,49.5392],[5.7897,49.5383]]]}},{"type":"Feature","properties":{},"geometry":{"type":"MultiLineString","coordinates":[[[6.1165,50.121],[6.11,50.1238],[6.0891,50.1546],[6.0548,50.1543],[5.9763,50.1672],[5.8669,50.0828],[5.8174,50.0127],[5.7881,49.9612],[5.7441,49.9196],[5.7353,49.8756],[5.7408,49.8572],[5.7258,49.8333],[5.725,49.8083],[5.788,49.7589],[5.8037,49.7322],[5.8804,49.6448],[5.8566,49.6128],[5.8376,49.5783],[5.8154,49.5538],[5.7897,49.5383]]]}},{"type":"Feature","properties":{},"geometry":{"type":"MultiLineString","coordinates":[[[8.3931,55.0968],[8.4619,55.0712],[8.5412,54.9546],[8.5945,54.916],[8.6707,54.9033],[8.8573,54.9011],[8.903,54.8969],[9.1858,54.8447],[9.255,54.808],[9.3419,54.8063],[9.4987,54.8404],[9.6158,54.8554],[9.6613,54.8344],[9.725,54.8255],[9.7397,54.8255]]]}},{"type":"Feature","properties":{},"geometry":{"type":"MultiLineString","coordinates":[[[15.9738,50.6355],[15.9485,50.6702],[15.8939,50.6769],[15.8192,50.7087],[15.7305,50.7397],[15.6439,50.7489],[15.464,50.7939],[15.3946,50.7963],[15.3544,50.8118],[15.3126,50.8457],[15.277,50.883],[15.2586,50.9585],[15.1259,50.9929],[14.9937,51.0144],[14.9844,51.0034],[14.99,50.9272],[14.9829,50.8866],[14.8958,50.8614],[14.8094,50.859]]]}},{"type":"Feature","properties":{},"geometry":{"type":"MultiLineString","coordinates":[[[13.8147,48.7669],[13.8431,48.7599],[13.9243,48.728],[13.9887,48.6924],[14.0491,48.6025],[14.1899,48.5786],[14.3676,48.5762],[14.4311,48.6163],[14.4887,48.6256],[14.5539,48.6133],[14.6913,48.5992],[14.7067,48.6719],[14.786,48.7474],[14.8219,48.774],[14.9225,48.7714],[14.9473,48.8277],[14.9721,48.9839],[14.9934,49.0011],[15.0668,48.9978],[15.1398,48.9693],[15.1617,48.9463],[15.1996,48.9481],[15.2527,48.9639],[15.3109,48.974],[15.4029,48.9574],[15.5994,48.8864],[15.7008,48.8604],[15.765,48.8654],[15.8252,48.8645]]]}},{"type":"Feature","properties":{},"geometry":{"type":"MultiLineString","coordinates":[[[7.0211,45.9258],[7.0557,45.9038],[7.129,45.8804],[7.328,45.9123],[7.4516,45.9445],[7.5386,45.9782],[7.5925,45.9722],[7.7879,45.9218],[7.8524,45.9475],[7.9931,46.0159],[8.0142,46.0519],[8.1252,46.161],[8.1273,46.1876],[8.0815,46.256],[8.0957,46.271],[8.2319,46.3412],[8.2985,46.4034],[8.3707,46.4451],[8.4226,46.446],[8.4368,46.4319],[8.4429,46.4028],[8.4385,46.2829],[8.4584,46.2459],[8.5654,46.1598],[8.6417,46.1108],[8.8185,46.0771],[8.8268,46.061],[8.778,45.9962],[8.8852,45.9187],[8.9043,45.862],[8.9537,45.83],[9.0238,45.8457],[9.0467,45.8756],[9.0192,45.9281],[8.9989,45.9831],[9.003,46.0149],[9.0224,46.0515],[9.071,46.1025],[9.2034,46.2192],[9.2511,46.2868],[9.2597,46.3913],[9.2601,46.4752],[9.3044,46.4956],[9.3994,46.4807],[9.4276,46.4823],[9.4406,46.4308],[9.4811,46.3488],[9.5287,46.3062],[9.5796,46.2961],[9.6395,46.2959],[9.7878,46.346],[9.8844,46.3678],[9.9393,46.3618],[9.9717,46.3277],[10.041,46.2381],[10.0806,46.228],[10.1284,46.2382],[10.1452,46.2535],[10.1299,46.288],[10.1096,46.3629],[10.0819,46.4207],[10.0456,46.4479],[10.0382,46.4832],[10.0612,46.5468],[10.087,46.5999],[10.1375,46.6144],[10.1955,46.6211],[10.2723,46.5649],[10.3631,46.5471],[10.4306,46.5501],[10.4425,46.5828],[10.4383,46.6188],[10.3979,46.665],[10.406,46.7349],[10.4528,46.8649]]]}},{"type":"Feature","properties":{},"geometry":{"type":"MultiLineString","coordinates":[[[10.4528,46.8649],[10.4546,46.8994],[10.4149,46.9644],[10.3494,46.9848],[10.1798,46.8623],[10.1335,46.8515],[9.9969,46.8853],[9.8777,46.9377],[9.8646,46.976],[9.8453,47.0074],[9.745,47.0371],[9.62,47.0575],[9.5802,47.0574]]]}},{"type":"Feature","properties":{},"geometry":{"type":"MultiLineString","coordinates":[[[7.1973,53.2823],[7.1889,53.1872],[7.1899,52.9995],[7.1795,52.9662],[7.1171,52.887],[7.0509,52.7448],[7.033,52.6514],[7.0131,52.6335],[6.7485,52.6341],[6.7107,52.6179],[6.7054,52.5977],[6.7188,52.5736],[6.7124,52.5497],[6.6916,52.5302],[6.703,52.4992],[6.7488,52.464],[6.8325,52.4423],[6.922,52.4403],[6.9681,52.4441],[7.0018,52.419],[7.0352,52.3802],[7.0326,52.3315],[7.0196,52.266],[6.9773,52.2055],[6.8551,52.1358],[6.8003,52.1112],[6.749,52.0987],[6.7245,52.0802],[6.713,52.0569],[6.7156,52.0362],[6.8024,51.9802],[6.8003,51.9674],[6.7752,51.9383],[6.7418,51.9109],[6.5176,51.8539],[6.425,51.8584],[6.3721,51.83],[6.3557,51.8247],[6.2971,51.8507],[6.1665,51.8808],[6.1172,51.8704],[6.0898,51.8539],[6.0076,51.834],[5.9488,51.8027],[5.9485,51.7624],[6.0527,51.6582],[6.0894,51.6378],[6.0911,51.5989],[6.1416,51.5501],[6.1932,51.4889],[6.1989,51.45],[6.1928,51.4106],[6.1662,51.3548],[6.0758,51.2241],[6.0748,51.199],[6.0825,51.18],[6.1134,51.1747],[6.1369,51.1648],[6.13,51.1474],[5.9611,51.0567],[5.9392,51.0408],[5.8684,51.0453],[5.8575,51.0301],[5.8672,51.0057],[5.8947,50.9842],[5.9551,50.9729],[6.0068,50.95],[6.0484,50.9049],[5.9939,50.7504]]]}},{"type":"Feature","properties":{},"geometry":{"type":"MultiLineString","coordinates":[[[9.5802,47.0574],[9.5957,47.0758],[9.6105,47.1072],[9.6012,47.1321],[9.5718,47.1579],[9.5558,47.1855],[9.5511,47.2122],[9.5421,47.2341],[9.5368,47.2546],[9.5275,47.2708]]]}},{"type":"Feature","properties":{},"geometry":{"type":"MultiLineString","coordinates":[[[7.0137,45.5005],[6.9624,45.5806],[6.8815,45.6703],[6.8062,45.71],[6.7909,45.7409],[6.7892,45.7801],[6.8045,45.8146],[6.9408,45.8684],[7.0211,45.9258]]]}},{"type":"Feature","properties":{},"geometry":{"type":"MultiLineString","coordinates":[[[15.9333,46.2776],[15.8476,46.2579],[15.7843,46.234],[15.7042,46.2133],[15.636,46.2007],[15.609,46.1719],[15.5926,46.14],[15.5969,46.1092],[15.6662,46.0485],[15.6756,45.9837],[15.6681,45.9045],[15.6522,45.8622],[15.6248,45.834],[15.4541,45.7976],[15.277,45.7326],[15.2729,45.7177],[15.3537,45.6599],[15.357,45.6455],[15.2901,45.6127],[15.2835,45.5797],[15.2912,45.5415],[15.3267,45.5023]],[[14.7336,45.5085],[14.6495,45.5715],[14.6085,45.6101],[14.5918,45.6513],[14.5689,45.6572],[14.534,45.6453],[14.5052,45.5952],[14.4274,45.5057]],[[13.9928,45.5094],[13.9703,45.5033]]]}},{"type":"Feature","properties":{},"geometry":{"type":"MultiLineString","coordinates":[[[5.9939,50.7504],[6.006,50.7322],[6.1195,50.6792],[6.1545,50.6373],[6.236,50.5967],[6.1684,50.5453],[6.1787,50.5225],[6.2031,50.4991],[6.2949,50.4855],[6.3409,50.4518],[6.3436,50.4003],[6.3645,50.3162],[6.1751,50.2326],[6.1213,50.1394],[6.1165,50.121]]]}},{"type":"Feature","properties":{},"geometry":{"type":"MultiLineString","coordinates":[[[10.4528,46.8649],[10.4794,46.8551],[10.5797,46.8537],[10.6893,46.8464],[10.7598,46.7933],[10.8289,46.7752],[10.9273,46.7695],[10.9933,46.777],[11.0251,46.797],[11.0635,46.8591],[11.1339,46.9362],[11.2444,46.9757],[11.4332,46.9831],[11.5275,46.9974],[11.6255,46.9966],[11.6994,46.9847],[11.7756,46.9861],[11.9695,47.0397],[12.1694,47.0821],[12.1972,47.075],[12.2012,47.0609],[12.1655,47.0282],[12.1308,46.9848],[12.1541,46.9353],[12.268,46.8359],[12.3301,46.7598],[12.3883,46.7027],[12.4792,46.6725],[12.5986,46.6541],[12.6998,46.6474],[12.8056,46.6259],[13.1687,46.5727],[13.3516,46.5579],[13.4901,46.5556],[13.7,46.5203]]]}},{"type":"Feature","properties":{},"geometry":{"type":"MultiLineString","coordinates":[[[13.7,46.5203],[13.6797,46.4629],[13.6371,46.4485],[13.5632,46.4151],[13.4785,46.3692],[13.3995,46.3175],[13.3782,46.2616],[13.3996,46.225],[13.421,46.2123],[13.4498,46.2235],[13.4918,46.2166],[13.5447,46.1966],[13.6325,46.177],[13.635,46.1578],[13.6166,46.1331],[13.548,46.0891],[13.4864,46.0395],[13.4803,46.0092],[13.4877,45.9871],[13.5092,45.9738],[13.6005,45.9798],[13.614,45.9617],[13.5696,45.8341],[13.5834,45.8124],[13.6635,45.792],[13.7217,45.7613],[13.8312,45.6804],[13.8747,45.6148],[13.8448,45.5928],[13.7759,45.582],[13.7199,45.5876]]]}},{"type":"Feature","properties":{},"geometry":{"type":"MultiLineString","coordinates":[[[4.2261,51.3865],[4.2115,51.3488],[4.1726,51.3071],[4.04,51.2471],[3.9021,51.2077],[3.8308,51.2126],[3.7819,51.2332],[3.7557,51.2549],[3.6818,51.2757],[3.5803,51.2862],[3.5171,51.2636],[3.472,51.2422],[3.4325,51.2458],[3.4028,51.2636],[3.3801,51.2911],[3.3501,51.3777]]]}},{"type":"Feature","properties":{},"geometry":{"type":"MultiLineString","coordinates":[[[5.9939,50.7504],[5.7974,50.7545],[5.7471,50.7596],[5.6936,50.7747],[5.6691,50.8059],[5.6395,50.8436],[5.6475,50.8667],[5.7366,50.9321],[5.75,50.9502],[5.7408,50.9599],[5.7498,50.9887],[5.8183,51.0864],[5.8271,51.1256],[5.7965,51.1531],[5.7524,51.1695],[5.6088,51.1985],[5.5404,51.2393],[5.5087,51.275],[5.4769,51.285],[5.4298,51.273],[5.3109,51.2597],[5.2142,51.279],[5.0999,51.3465],[5.0734,51.4068],[5.0595,51.4531],[5.0309,51.4691],[4.9926,51.4454],[4.9439,51.4078],[4.8481,51.4033],[4.8207,51.4121],[4.8161,51.4328],[4.8106,51.4527],[4.7842,51.4774],[4.7557,51.4911],[4.634,51.4217],[4.5888,51.4219],[4.5317,51.4486],[4.5034,51.4747],[4.4409,51.4598],[4.3848,51.4276],[4.404,51.3671],[4.3737,51.356],[4.3045,51.3615],[4.2261,51.3865]]]}},{"type":"Feature","properties":{},"geometry":{"type":"MultiLineString","coordinates":[[[6.3443,49.4527],[6.3823,49.4581],[6.4581,49.4428],[6.5343,49.3947],[6.5663,49.3462],[6.5747,49.3197],[6.6076,49.2909],[6.7354,49.1606],[6.7763,49.1542],[6.8207,49.1739],[6.8495,49.202],[6.8912,49.2075],[6.9583,49.1946],[7.0015,49.1799],[7.0221,49.1235],[7.0367,49.1127],[7.0658,49.1249],[7.1174,49.1275],[7.1999,49.1136],[7.3134,49.1296],[7.4042,49.1531],[7.4505,49.1522],[7.5255,49.0864],[7.6109,49.0618],[7.7992,49.0419],[8.0012,49.011],[8.0806,48.9859],[8.1348,48.9736],[8.1403,48.8864],[8.124,48.8733],[7.9228,48.6985],[7.838,48.636],[7.7948,48.5468],[7.7651,48.41],[7.7057,48.2801],[7.6166,48.1568],[7.5842,48.0643],[7.6085,48.0026],[7.5933,47.9057],[7.5386,47.7736],[7.5294,47.6739],[7.5655,47.6066],[7.6156,47.5927]]]}},{"type":"Feature","properties":{},"geometry":{"type":"MultiLineString","coordinates":[[[9.524,47.5242],[9.35,47.5989],[9.1828,47.6707],[9.1275,47.6707],[8.8811,47.6564],[8.874,47.6627],[8.8311,47.7036],[8.7931,47.7166],[8.7701,47.7099],[8.7548,47.6981],[8.7283,47.7001],[8.6179,47.7661],[8.5726,47.7756],[8.5098,47.7669],[8.4358,47.7313],[8.4034,47.6878],[8.4133,47.6627],[8.4517,47.6518],[8.5523,47.6591],[8.5671,47.6519],[8.5705,47.6378],[8.5595,47.624],[8.4777,47.6127],[8.454,47.5962],[8.4301,47.5921],[8.4148,47.5896],[8.3278,47.6069],[8.1983,47.6069],[8.0938,47.5762],[7.9271,47.5638],[7.6981,47.5699],[7.6156,47.5927]]]}},{"type":"Feature","properties":{},"geometry":{"type":"MultiLineString","coordinates":[[[9.5275,47.2708],[9.6091,47.3918],[9.6259,47.467],[9.5544,47.5112],[9.524,47.5242]]]}},{"type":"Feature","properties":{},"geometry":{"type":"MultiLineString","coordinates":[[[9.5802,47.0574],[9.5023,47.0627],[9.4877,47.0622],[9.4795,47.0975],[9.4843,47.1727],[9.5275,47.2708]]]}},{"type":"Feature","properties":{},"geometry":{"type":"MultiLineString","coordinates":[[[7.0211,45.9258],[7.0039,45.9588],[6.9537,46.0171],[6.8973,46.0517],[6.8581,46.0894],[6.8057,46.1307],[6.772,46.1651],[6.8168,46.2752],[6.7842,46.3139],[6.7674,46.3692],[6.7761,46.4067],[6.7581,46.4158],[6.5782,46.4374],[6.4289,46.4305],[6.3219,46.3937],[6.2347,46.3326],[6.2242,46.3194],[6.2296,46.3084],[6.273,46.2523],[6.1994,46.193],[6.0866,46.147],[6.0067,46.1424],[5.9715,46.1512],[5.97,46.2147],[6.0361,46.2381],[6.0959,46.2794],[6.1159,46.3376],[6.1232,46.3786],[6.0602,46.4282],[6.068,46.4585],[6.107,46.5161],[6.1297,46.567],[6.1608,46.6111],[6.2851,46.683],[6.4101,46.7554],[6.429,46.8323],[6.4386,46.9259],[6.4562,46.9483],[6.6248,47.0044],[6.6669,47.0265],[6.688,47.0583],[6.8206,47.1632],[6.9521,47.2672],[6.9785,47.302],[7.0006,47.3225],[7.0005,47.3394],[6.984,47.3526],[6.9215,47.3612],[6.9004,47.3942],[6.9684,47.4532],[7.0535,47.4894],[7.136,47.4899],[7.1692,47.4732],[7.1674,47.4537],[7.2031,47.4327],[7.2657,47.4258],[7.3431,47.4331],[7.42,47.4552],[7.4674,47.5076],[7.4949,47.5474],[7.6156,47.5927]]]}},{"type":"Feature","properties":{},"geometry":{"type":"MultiLineString","coordinates":[[[13.8147,48.7669],[13.8029,48.7475],[13.7975,48.6864],[13.7989,48.6217],[13.7853,48.5875],[13.7239,48.5424],[13.6922,48.5328],[13.6752,48.523],[13.4866,48.5818],[13.4717,48.5718],[13.4598,48.5645],[13.4093,48.3942],[13.3746,48.3614],[13.3228,48.3313],[13.2152,48.3019],[13.1405,48.2899],[13.0821,48.2751],[12.8974,48.2037],[12.8142,48.1609],[12.7604,48.107],[12.76,48.076],[12.8499,47.9848],[12.9536,47.8906],[12.9542,47.8078],[12.9083,47.7458],[12.8976,47.7219],[12.9281,47.7128],[12.9855,47.7094],[13.0336,47.6987],[13.0541,47.6551],[13.0479,47.5792],[13.0315,47.508],[13.0143,47.4781],[12.968,47.4757],[12.8789,47.5065],[12.8094,47.5422],[12.7828,47.5642],[12.7812,47.5905],[12.7962,47.607],[12.7714,47.6394],[12.6859,47.6693],[12.5942,47.6563],[12.5266,47.6361],[12.4829,47.6373],[12.4358,47.6661],[12.3632,47.6882],[12.2683,47.7027],[12.2093,47.7183],[12.1969,47.7091],[12.2038,47.6467],[12.1856,47.6195],[11.7168,47.5835],[11.5739,47.5497],[11.4699,47.5061],[11.3929,47.4872],[11.3741,47.4603],[11.2979,47.4249],[11.212,47.4136],[11.1912,47.4252],[11.136,47.4089],[11.0419,47.3931],[10.9809,47.3982],[10.9521,47.4267],[10.8939,47.4704],[10.8706,47.5008],[10.8731,47.5202],[10.7416,47.5241],[10.6587,47.5472],[10.4829,47.5418],[10.4394,47.5516],[10.4304,47.5411],[10.4039,47.417],[10.3691,47.3661],[10.3128,47.3134],[10.2406,47.2841],[10.183,47.2788],[10.1858,47.3172],[10.2003,47.3634],[10.1588,47.3743],[10.0965,47.3796],[10.0663,47.3933],[10.0742,47.4285],[10.0598,47.4491],[10.0341,47.4736],[9.9716,47.5053],[9.8392,47.5523],[9.7489,47.5755],[9.7151,47.5508],[9.6506,47.5259],[9.5489,47.5341],[9.524,47.5242]]]}},{"type":"Feature","properties":{},"geometry":{"type":"MultiLineString","coordinates":[[[15.9768,46.8014],[15.9805,46.7059],[15.9723,46.6972],[15.9577,46.6776],[15.7669,46.7113],[15.7603,46.7108],[15.6327,46.6984],[15.5453,46.6546],[15.4393,46.6297],[15.217,46.643],[15.0007,46.626],[14.9495,46.6132],[14.8933,46.6059],[14.8406,46.5805],[14.8106,46.5446],[14.7568,46.4991],[14.6802,46.4634],[14.597,46.4361],[14.5771,46.4129],[14.5498,46.3997],[14.5035,46.4171],[14.4659,46.4161],[14.4199,46.4279],[14.2673,46.4407],[14.0995,46.4619],[14.0196,46.4822],[13.9288,46.4982],[13.8314,46.5112],[13.744,46.5143],[13.7,46.5203]]]}},{"type":"Feature","properties":{},"geometry":{"type":"MultiLineString","coordinates":[[[14.8094,50.859],[14.8142,50.8717],[14.9175,51.0087],[14.9638,51.0951],[15.0166,51.2527],[14.9531,51.3771],[14.9356,51.4354],[14.906,51.4633],[14.7247,51.5239],[14.7109,51.5449],[14.7387,51.6271],[14.7249,51.6617],[14.6813,51.6982],[14.6239,51.7708],[14.6016,51.8324],[14.6749,51.9048],[14.693,51.958],[14.7248,52.0309],[14.7481,52.0708],[14.7526,52.0818],[14.7046,52.1102],[14.6924,52.15],[14.7054,52.2075],[14.6799,52.25],[14.6157,52.2776],[14.5739,52.3142],[14.5546,52.3596],[14.5697,52.4311],[14.6194,52.5285],[14.514,52.6456],[14.2537,52.7825],[14.1286,52.8782],[14.1389,52.9329],[14.1937,52.9823],[14.2932,53.0267],[14.3686,53.1055],[14.4109,53.199],[14.4123,53.2168],[14.4146,53.2835],[14.2987,53.5564],[14.2799,53.6247],[14.2661,53.7071],[14.1982,53.9191],[14.2114,53.9504]]]}},{"type":"Feature","properties":{},"geometry":{"type":"MultiLineString","coordinates":[[[5.7897,49.5383],[5.8234,49.5051],[5.9014,49.4898],[5.9289,49.4775],[5.9595,49.4546],[6.0114,49.4455],[6.0741,49.4546],[6.1199,49.4852],[6.181,49.4989],[6.2422,49.4943],[6.2773,49.4775],[6.3443,49.4527]]]}}]}